0 COSMOS 2251 DEB
1 35667U 93036APJ 13285.24891415  .00001153  00000-0  38215-3 0  2963
2 35667 074.0629 130.3406 0031549 235.8934 123.9081 14.38694649227256
0 COSMOS 2251 DEB
1 35667U 93036APJ 13288.26152929  .00002200  00000-0  72138-3 0  2975
2 35667 074.0606 124.7831 0030914 228.7536 248.0276 14.38705244227680
0 COSMOS 2251 DEB
1 35667U 93036APJ 13290.88127749  .00001597  00000-0  52635-3 0  2987
2 35667 074.0628 119.9518 0029529 223.5996 136.2826 14.38713955228065
0 COSMOS 2251 DEB
1 35667U 93036APJ 13292.20243648  .00001586  00000-0  52262-3 0  2997
2 35667 074.0633 117.5325 0030657 221.4261 138.4569 14.38715144228258
0 COSMOS 2251 DEB
1 35667U 93036APJ 13295.19241671  .00001760  00000-0  57855-3 0  3002
2 35667 074.0535 112.0151 0032269 212.8964 147.0183 14.38722887228688
